{"fetched_at":"2026-03-29T16:36:15Z","count":15609,"tles":[{"name":"STARLINK-33866","line1":"1 63653U 25083V   26087.77746388  .00023570  00000+0  86303-3 0  9993","line2":"2 63653  43.0002 257.6183 0001235 273.0455  87.0255 15.27589743 53010","category":"Starlink"}]}